[
  {
    "OBJECT_NAME": "STRATOSAT-TK 1 (RS52S)",
    "OBJECT_ID": "2023-091B",
    "EPOCH": "2025-06-21T20:30:41.954400",
    "MEAN_MOTION": 15.4102409,
    "ECCENTRICITY": 0.0007059,
    "INCLINATION": 97.5527,
    "RA_OF_ASC_NODE": 236.7505,
    "ARG_OF_PERICENTER": 254.7303,
    "MEAN_ANOMALY": 105.3163,
    "EPHEMERIS_TYPE": 0,
    "CLASSIFICATION_TYPE": "U",
    "NORAD_CAT_ID": 57167,
    "ELEMENT_SET_NO": 999,
    "REV_AT_EPOCH": 10990,
    "BSTAR": 0.00071637,
    "MEAN_MOTION_DOT": 0.00029574,
    "MEAN_MOTION_DDOT": 0
  },
  {
    "OBJECT_NAME": "UMKA 1 (RS40S)",
    "OBJECT_ID": "2023-091G",
    "EPOCH": "2025-06-21T19:44:14.401824",
    "MEAN_MOTION": 15.15475463,
    "ECCENTRICITY": 0.0012743,
    "INCLINATION": 97.5577,
    "RA_OF_ASC_NODE": 228.1407,
    "ARG_OF_PERICENTER": 294.3431,
    "MEAN_ANOMALY": 65.647,
    "EPHEMERIS_TYPE": 0,
    "CLASSIFICATION_TYPE": "U",
    "NORAD_CAT_ID": 57172,
    "ELEMENT_SET_NO": 999,
    "REV_AT_EPOCH": 10933,
    "BSTAR": 0.00021614,
    "MEAN_MOTION_DOT": 4.03e-05,
    "MEAN_MOTION_DDOT": 0
  },
  {
    "OBJECT_NAME": "CUBESX-HSE 3 (RS42S)",
    "OBJECT_ID": "2023-091N",
    "EPOCH": "2025-06-21T19:49:00.232896",
    "MEAN_MOTION": 15.20944199,
    "ECCENTRICITY": 0.0011798,
    "INCLINATION": 97.5609,
    "RA_OF_ASC_NODE": 230.6107,
    "ARG_OF_PERICENTER": 280.1227,
    "MEAN_ANOMALY": 79.8677,
    "EPHEMERIS_TYPE": 0,
    "CLASSIFICATION_TYPE": "U",
    "NORAD_CAT_ID": 57178,
    "ELEMENT_SET_NO": 999,
    "REV_AT_EPOCH": 10947,
    "BSTAR": 0.00030794,
    "MEAN_MOTION_DOT": 6.759e-05,
    "MEAN_MOTION_DDOT": 0
  },
  {
    "OBJECT_NAME": "MONITOR-3 (RS58S)",
    "OBJECT_ID": "2023-091Q",
    "EPOCH": "2025-06-21T19:12:28.611360",
    "MEAN_MOTION": 15.19264373,
    "ECCENTRICITY": 0.0012443,
    "INCLINATION": 97.5602,
    "RA_OF_ASC_NODE": 229.8197,
    "ARG_OF_PERICENTER": 283.2373,
    "MEAN_ANOMALY": 76.7473,
    "EPHEMERIS_TYPE": 0,
    "CLASSIFICATION_TYPE": "U",
    "NORAD_CAT_ID": 57180,
    "ELEMENT_SET_NO": 999,
    "REV_AT_EPOCH": 10942,
    "BSTAR": 0.00025987,
    "MEAN_MOTION_DOT": 5.42e-05,
    "MEAN_MOTION_DDOT": 0
  },
  {
    "OBJECT_NAME": "MONITOR-4 (RS57S)",
    "OBJECT_ID": "2023-091S",
    "EPOCH": "2025-06-21T20:41:36.140640",
    "MEAN_MOTION": 15.19312844,
    "ECCENTRICITY": 0.0012466,
    "INCLINATION": 97.5597,
    "RA_OF_ASC_NODE": 229.8396,
    "ARG_OF_PERICENTER": 283.7519,
    "MEAN_ANOMALY": 76.2328,
    "EPHEMERIS_TYPE": 0,
    "CLASSIFICATION_TYPE": "U",
    "NORAD_CAT_ID": 57182,
    "ELEMENT_SET_NO": 999,
    "REV_AT_EPOCH": 10943,
    "BSTAR": 0.00026096,
    "MEAN_MOTION_DOT": 5.45e-05,
    "MEAN_MOTION_DDOT": 0
  },
  {
    "OBJECT_NAME": "MONITOR-2 (RS39S)",
    "OBJECT_ID": "2023-091U",
    "EPOCH": "2025-06-21T19:57:01.769472",
    "MEAN_MOTION": 15.14482298,
    "ECCENTRICITY": 0.001071,
    "INCLINATION": 97.5604,
    "RA_OF_ASC_NODE": 228.4094,
    "ARG_OF_PERICENTER": 283.8075,
    "MEAN_ANOMALY": 76.1965,
    "EPHEMERIS_TYPE": 0,
    "CLASSIFICATION_TYPE": "U",
    "NORAD_CAT_ID": 57184,
    "ELEMENT_SET_NO": 999,
    "REV_AT_EPOCH": 10933,
    "BSTAR": 0.00019097,
    "MEAN_MOTION_DOT": 3.451e-05,
    "MEAN_MOTION_DDOT": 0
  },
  {
    "OBJECT_NAME": "SVYATOBOR 1 (RS60S)",
    "OBJECT_ID": "2023-091X",
    "EPOCH": "2025-06-21T20:03:34.941312",
    "MEAN_MOTION": 15.19102229,
    "ECCENTRICITY": 0.0009411,
    "INCLINATION": 97.5607,
    "RA_OF_ASC_NODE": 230.5592,
    "ARG_OF_PERICENTER": 273.2353,
    "MEAN_ANOMALY": 86.7804,
    "EPHEMERIS_TYPE": 0,
    "CLASSIFICATION_TYPE": "U",
    "NORAD_CAT_ID": 57187,
    "ELEMENT_SET_NO": 999,
    "REV_AT_EPOCH": 10947,
    "BSTAR": 0.00026052,
    "MEAN_MOTION_DOT": 5.403e-05,
    "MEAN_MOTION_DDOT": 0
  },
  {
    "OBJECT_NAME": "VIZARD-METEO (RS38S)",
    "OBJECT_ID": "2023-091Z",
    "EPOCH": "2025-06-21T19:30:04.517856",
    "MEAN_MOTION": 15.23741982,
    "ECCENTRICITY": 0.0007912,
    "INCLINATION": 97.5596,
    "RA_OF_ASC_NODE": 232.5049,
    "ARG_OF_PERICENTER": 263.0001,
    "MEAN_ANOMALY": 97.0336,
    "EPHEMERIS_TYPE": 0,
    "CLASSIFICATION_TYPE": "U",
    "NORAD_CAT_ID": 57189,
    "ELEMENT_SET_NO": 999,
    "REV_AT_EPOCH": 10960,
    "BSTAR": 0.00030985,
    "MEAN_MOTION_DOT": 7.382e-05,
    "MEAN_MOTION_DDOT": 0
  },
  {
    "OBJECT_NAME": "NANOZOND 1 (RS49S)",
    "OBJECT_ID": "2023-091AA",
    "EPOCH": "2025-06-21T19:59:14.607744",
    "MEAN_MOTION": 15.36240876,
    "ECCENTRICITY": 0.0005312,
    "INCLINATION": 97.555,
    "RA_OF_ASC_NODE": 236.6588,
    "ARG_OF_PERICENTER": 246.1863,
    "MEAN_ANOMALY": 113.8823,
    "EPHEMERIS_TYPE": 0,
    "CLASSIFICATION_TYPE": "U",
    "NORAD_CAT_ID": 57190,
    "ELEMENT_SET_NO": 999,
    "REV_AT_EPOCH": 10989,
    "BSTAR": 0.00054161,
    "MEAN_MOTION_DOT": 0.0001908,
    "MEAN_MOTION_DDOT": 0
  },
  {
    "OBJECT_NAME": "POLYTECH-UNIVERSE 3 (RS46S)",
    "OBJECT_ID": "2023-091AB",
    "EPOCH": "2025-06-21T19:56:07.137888",
    "MEAN_MOTION": 15.14564261,
    "ECCENTRICITY": 0.0015529,
    "INCLINATION": 97.5574,
    "RA_OF_ASC_NODE": 227.9518,
    "ARG_OF_PERICENTER": 301.6843,
    "MEAN_ANOMALY": 58.2874,
    "EPHEMERIS_TYPE": 0,
    "CLASSIFICATION_TYPE": "U",
    "NORAD_CAT_ID": 57191,
    "ELEMENT_SET_NO": 999,
    "REV_AT_EPOCH": 10932,
    "BSTAR": 0.00019477,
    "MEAN_MOTION_DOT": 3.534e-05,
    "MEAN_MOTION_DDOT": 0
  },
  {
    "OBJECT_NAME": "UTMN 2 (RS27S)",
    "OBJECT_ID": "2023-091AP",
    "EPOCH": "2025-06-21T19:14:54.775968",
    "MEAN_MOTION": 15.21955229,
    "ECCENTRICITY": 0.0008421,
    "INCLINATION": 97.5597,
    "RA_OF_ASC_NODE": 231.7474,
    "ARG_OF_PERICENTER": 266.2647,
    "MEAN_ANOMALY": 93.7626,
    "EPHEMERIS_TYPE": 0,
    "CLASSIFICATION_TYPE": "U",
    "NORAD_CAT_ID": 57203,
    "ELEMENT_SET_NO": 999,
    "REV_AT_EPOCH": 10955,
    "BSTAR": 0.00027978,
    "MEAN_MOTION_DOT": 6.314e-05,
    "MEAN_MOTION_DDOT": 0
  },
  {
    "OBJECT_NAME": "ARCCUBE 1 (RS25S)",
    "OBJECT_ID": "2023-091AR",
    "EPOCH": "2025-06-21T19:42:15.315840",
    "MEAN_MOTION": 15.46491134,
    "ECCENTRICITY": 0.0004959,
    "INCLINATION": 97.5463,
    "RA_OF_ASC_NODE": 238.9465,
    "ARG_OF_PERICENTER": 231.6931,
    "MEAN_ANOMALY": 128.3872,
    "EPHEMERIS_TYPE": 0,
    "CLASSIFICATION_TYPE": "U",
    "NORAD_CAT_ID": 57205,
    "ELEMENT_SET_NO": 999,
    "REV_AT_EPOCH": 11006,
    "BSTAR": 0.00074662,
    "MEAN_MOTION_DOT": 0.00037085,
    "MEAN_MOTION_DDOT": 0
  },
  {
    "OBJECT_NAME": "KUZGTU 1 (RS47S)",
    "OBJECT_ID": "2023-091AV",
    "EPOCH": "2025-06-21T20:34:06.258432",
    "MEAN_MOTION": 15.20326344,
    "ECCENTRICITY": 0.0011871,
    "INCLINATION": 97.5583,
    "RA_OF_ASC_NODE": 230.1799,
    "ARG_OF_PERICENTER": 282.4021,
    "MEAN_ANOMALY": 77.5885,
    "EPHEMERIS_TYPE": 0,
    "CLASSIFICATION_TYPE": "U",
    "NORAD_CAT_ID": 57217,
    "ELEMENT_SET_NO": 999,
    "REV_AT_EPOCH": 10946,
    "BSTAR": 0.00029127,
    "MEAN_MOTION_DOT": 6.274e-05,
    "MEAN_MOTION_DDOT": 0
  },
  {
    "OBJECT_NAME": "SONATE-2",
    "OBJECT_ID": "2024-043Q",
    "EPOCH": "2025-06-21T14:41:44.279520",
    "MEAN_MOTION": 15.36118002,
    "ECCENTRICITY": 0.001206,
    "INCLINATION": 97.5143,
    "RA_OF_ASC_NODE": 304.035,
    "ARG_OF_PERICENTER": 75.5183,
    "MEAN_ANOMALY": 284.7398,
    "EPHEMERIS_TYPE": 0,
    "CLASSIFICATION_TYPE": "U",
    "NORAD_CAT_ID": 59112,
    "ELEMENT_SET_NO": 999,
    "REV_AT_EPOCH": 7218,
    "BSTAR": 0.00033132,
    "MEAN_MOTION_DOT": 0.00011605,
    "MEAN_MOTION_DDOT": 0
  }
]