STRATOSAT-TK 1 (RS52S)  
1 57167U 23091B   25172.85465225  .00029574  00000+0  71637-3 0  9998
2 57167  97.5527 236.7505 0007059 254.7303 105.3163 15.41024090109900
UMKA 1 (RS40S)          
1 57172U 23091G   25172.82238891  .00004030  00000+0  21614-3 0  9998
2 57172  97.5577 228.1407 0012743 294.3431  65.6470 15.15475463109336
CUBESX-HSE 3 (RS42S)    
1 57178U 23091N   25172.82569714  .00006759  00000+0  30794-3 0  9994
2 57178  97.5609 230.6107 0011798 280.1227  79.8677 15.20944199109472
MONITOR-3 (RS58S)       
1 57180U 23091Q   25172.80033115  .00005420  00000+0  25987-3 0  9998
2 57180  97.5602 229.8197 0012443 283.2373  76.7473 15.19264373109423
MONITOR-4 (RS57S)       
1 57182U 23091S   25172.86222385  .00005450  00000+0  26096-3 0  9990
2 57182  97.5597 229.8396 0012466 283.7519  76.2328 15.19312844109433
MONITOR-2 (RS39S)       
1 57184U 23091U   25172.83127048  .00003451  00000+0  19097-3 0  9991
2 57184  97.5604 228.4094 0010710 283.8075  76.1965 15.14482298109333
SVYATOBOR 1 (RS60S)     
1 57187U 23091X   25172.83582108  .00005403  00000+0  26052-3 0  9994
2 57187  97.5607 230.5592 0009411 273.2353  86.7804 15.19102229109476
VIZARD-METEO (RS38S)    
1 57189U 23091Z   25172.81255229  .00007382  00000+0  30985-3 0  9993
2 57189  97.5596 232.5049 0007912 263.0001  97.0336 15.23741982109605
NANOZOND 1 (RS49S)      
1 57190U 23091AA  25172.83280796  .00019080  00000+0  54161-3 0  9994
2 57190  97.5550 236.6588 0005312 246.1863 113.8823 15.36240876109899
POLYTECH-UNIVERSE 3 (R*)
1 57191U 23091AB  25172.83063817  .00003534  00000+0  19477-3 0  9996
2 57191  97.5574 227.9518 0015529 301.6843  58.2874 15.14564261109327
UTMN 2 (RS27S)          
1 57203U 23091AP  25172.80202287  .00006314  00000+0  27978-3 0  9997
2 57203  97.5597 231.7474 0008421 266.2647  93.7626 15.21955229109551
ARCCUBE 1 (RS25S)       
1 57205U 23091AR  25172.82101060  .00037085  00000+0  74662-3 0  9999
2 57205  97.5463 238.9465 0004959 231.6931 128.3872 15.46491134110061
KUZGTU 1 (RS47S)        
1 57217U 23091AV  25172.85701688  .00006274  00000+0  29127-3 0  9999
2 57217  97.5583 230.1799 0011871 282.4021  77.5885 15.20326344109469
SONATE-2                
1 59112U 24043Q   25172.61231805  .00011605  00000+0  33132-3 0  9991
2 59112  97.5143 304.0350 0012060  75.5183 284.7398 15.36118002 72188
